OBJECT_NAME,OBJECT_ID,EPOCH,MEAN_MOTION,ECCENTRICITY,INCLINATION,RA_OF_ASC_NODE,ARG_OF_PERICENTER,MEAN_ANOMALY,EPHEMERIS_TYPE,CLASSIFICATION_TYPE,NORAD_CAT_ID,ELEMENT_SET_NO,REV_AT_EPOCH,BSTAR,MEAN_MOTION_DOT,MEAN_MOTION_DDOT
STARLINK-37630,2026-119F,2026-06-19T20:00:01.999008,15.49172565,.0000873,97.2856,196.5271,94.6685,80.2772,0,U,69301,999,447,.68222E-3,.37167E-3,0
STARLINK-37804,2026-119G,2026-06-19T20:00:01.999008,15.49160620,.0001399,97.2855,196.5232,93.2372,74.6101,0,U,69302,999,447,.57115E-3,.31064E-3,0
STARLINK-37730,2026-119H,2026-06-19T20:00:01.999008,15.57039483,.0001625,97.2848,196.7562,77.6498,275.7409,0,U,69303,999,447,-.3933E-1,-.2473162E-1,0
STARLINK-37731,2026-119J,2026-06-19T13:06:12.101760,15.49218677,.00006615,97.2852,196.2298,77.3064,282.8261,0,U,69304,999,439,.5666053E-3,.30878E-3,0
STARLINK-37734,2026-119K,2026-06-19T20:00:01.999008,15.49108284,.0000524,97.2861,196.6870,279.7965,275.0901,0,U,69305,999,447,.85955E-3,.46803E-3,0
STARLINK-37701,2026-119L,2026-06-19T20:00:01.999008,15.53912311,.0001513,97.2850,196.7495,104.1242,226.1733,0,U,69306,999,447,-.44274E-1,-.2478301E-1,0
STARLINK-37732,2026-119M,2026-06-19T20:00:01.999008,15.60791507,.0001688,97.2851,196.7935,72.8779,1.1163,0,U,69307,999,447,-.33994E-1,-.2467067E-1,0
STARLINK-37689,2026-119N,2026-06-19T20:00:01.999008,15.49158809,.0000595,97.2855,196.5285,94.6008,86.3710,0,U,69308,999,447,.6542E-3,.35612E-3,0
STARLINK-37619,2026-119P,2026-06-19T20:00:01.999008,15.59130375,.0001705,97.2848,196.7808,73.8880,337.3958,0,U,69309,999,447,-.37203E-1,-.2524288E-1,0
STARLINK-37794,2026-119Q,2026-06-19T20:00:01.999008,15.50267759,.0001469,97.2856,196.6885,58.0538,131.1150,0,U,69310,999,447,-.2974E-1,-.1520531E-1,0
STARLINK-37795,2026-119R,2026-06-19T20:00:01.999008,15.49157187,.0000592,97.2853,196.5397,101.4993,104.8417,0,U,69311,999,447,.68257E-3,.37166E-3,0
STARLINK-37790,2026-119S,2026-06-19T20:00:01.999008,15.52742380,.0001605,97.2848,196.7478,62.4944,267.9315,0,U,69312,999,447,-.59832E-1,-.3237092E-1,0
STARLINK-37676,2026-119T,2026-06-19T20:00:01.999008,15.61212322,.000168,97.2853,196.8167,68.6078,58.9389,0,U,69313,999,447,-.3369E-1,-.2482795E-1,0
STARLINK-37617,2026-119U,2026-06-19T20:00:01.999008,15.54011096,.0001511,97.2852,196.7543,94.2842,248.1212,0,U,69314,999,447,-.42795E-1,-.2413816E-1,0
STARLINK-37627,2026-119V,2026-06-19T20:00:01.999008,15.52329936,.0001419,97.2850,196.7615,72.3487,285.3605,0,U,69315,999,447,-.43006E-1,-.2297769E-1,0
STARLINK-37738,2026-119W,2026-06-19T20:00:01.999008,15.57004439,.0001536,97.2849,196.7513,95.5811,244.1933,0,U,69316,999,447,-.40602E-1,-.2539298E-1,0
STARLINK-37799,2026-119X,2026-06-19T20:00:01.999008,15.64238600,.0001964,97.2851,196.8261,84.3931,76.6683,0,U,69317,999,442,-.31096E-1,-.2568081E-1,0
STARLINK-37802,2026-119Y,2026-06-19T20:00:01.999008,15.59185096,.0001453,97.2851,196.8059,63.9218,39.9300,0,U,69318,999,447,-.36277E-1,-.2473914E-1,0
STARLINK-37803,2026-119Z,2026-06-19T20:00:01.999008,15.51177742,.0001953,97.2853,196.6864,78.3813,105.5720,0,U,69319,999,442,-.47777E-1,-.2477708E-1,0
GUOWANG TEST OBJECT A,2026-120A,2026-06-07T11:06:12.288672,15.38803685,.00095994,54.9967,71.5399,294.3963,65.6063,0,U,69320,999,119,.24095813E-3,.9002E-4,0
GUOWANG TEST OBJECT B,2026-120B,2026-06-19T17:41:19.278816,15.38766949,.001042,54.9984,16.2566,337.3538,22.7029,0,U,69321,999,308,.28601E-3,.10751E-3,0
GUOWANG TEST OBJECT C,2026-120C,2026-06-07T21:56:00.773376,15.39284097,.00098504,54.9968,69.4792,309.3319,50.6835,0,U,69322,999,126,.41735581E-3,.16153E-3,0
GUOWANG TEST OBJECT D,2026-120D,2026-06-19T09:47:27.320640,15.38590797,.00115824,54.9975,17.6918,350.5140,9.5667,0,U,69323,999,303,.43871176E-4,.1304E-4,0
QIANFAN-163,2026-121A,2026-06-19T19:13:52.987872,13.59758596,.0020353,89.0159,300.2517,181.2404,178.8705,0,U,69325,999,251,.27851E-4,.33E-6,0
QIANFAN-164,2026-121B,2026-06-11T09:53:52.001952,13.60355109,.0019383,89.0157,301.0998,205.3125,154.7084,0,U,69326,999,137,.13228E-3,.112E-5,0
SZ-22 MODULE,2025-272C,2026-06-19T02:18:20.664864,15.60279994,.00062711,41.4805,310.5033,103.8964,256.2573,0,U,69328,999,362,.20400189E-3,.1686E-3,0
STARLINK-37733,2026-122A,2026-06-18T04:13:56.398944,15.80450219,.00014071,97.2827,198.6747,137.8378,222.2998,0,U,69329,999,231,-.23398453E-2,-.420355E-2,0
STARLINK-37772,2026-122B,2026-06-19T20:00:01.999008,15.73732808,.0001694,97.2853,200.4284,59.3095,5.9081,0,U,69330,999,372,-.12194E-1,-.1503009E-1,0
STARLINK-37768,2026-122C,2026-06-19T20:00:01.999008,15.61178952,.0001536,97.2847,200.3920,113.3858,218.8490,0,U,69331,999,372,-.33426E-1,-.2462943E-1,0
