STARLINK-37630          
1 69301U 26119F   26170.83335647  .00037167  00000+0  68222-3 0  9999
2 69301  97.2856 196.5271 0000873  94.6685  80.2772 15.49172565  4471
STARLINK-37804          
1 69302U 26119G   26170.83335647  .00031064  00000+0  57115-3 0  9999
2 69302  97.2855 196.5232 0001399  93.2372  74.6101 15.49160620  4472
STARLINK-37730          
1 69303U 26119H   26170.83335647 -.02473162  00000+0 -39330-1 0  9990
2 69303  97.2848 196.7562 0001625  77.6498 275.7409 15.57039483  4476
STARLINK-37731          
1 69304U 26119J   26170.54597340  .00030878  00000+0  56661-3 0  9996
2 69304  97.2852 196.2298 0000661  77.3064 282.8261 15.49218677  4399
STARLINK-37734          
1 69305U 26119K   26170.83335647  .00046803  00000+0  85955-3 0  9992
2 69305  97.2861 196.6870 0000524 279.7965 275.0901 15.49108284  4472
STARLINK-37701          
1 69306U 26119L   26170.83335647 -.02478301  00000+0 -44274-1 0  9996
2 69306  97.2850 196.7495 0001513 104.1242 226.1733 15.53912311  4472
STARLINK-37732          
1 69307U 26119M   26170.83335647 -.02467067  00000+0 -33994-1 0  9991
2 69307  97.2851 196.7935 0001688  72.8779   1.1163 15.60791507  4470
STARLINK-37689          
1 69308U 26119N   26170.83335647  .00035612  00000+0  65420-3 0  9996
2 69308  97.2855 196.5285 0000595  94.6008  86.3710 15.49158809  4476
STARLINK-37619          
1 69309U 26119P   26170.83335647 -.02524288  00000+0 -37203-1 0  9999
2 69309  97.2848 196.7808 0001705  73.8880 337.3958 15.59130375  4475
STARLINK-37794          
1 69310U 26119Q   26170.83335647 -.01520531  00000+0 -29740-1 0  9994
2 69310  97.2856 196.6885 0001469  58.0538 131.1150 15.50267759  4474
STARLINK-37795          
1 69311U 26119R   26170.83335647  .00037166  00000+0  68257-3 0  9997
2 69311  97.2853 196.5397 0000592 101.4993 104.8417 15.49157187  4477
STARLINK-37790          
1 69312U 26119S   26170.83335647 -.03237092  00000+0 -59832-1 0  9990
2 69312  97.2848 196.7478 0001605  62.4944 267.9315 15.52742380  4479
STARLINK-37676          
1 69313U 26119T   26170.83335647 -.02482795  00000+0 -33690-1 0  9996
2 69313  97.2853 196.8167 0001680  68.6078  58.9389 15.61212322  4478
STARLINK-37617          
1 69314U 26119U   26170.83335647 -.02413816  00000+0 -42795-1 0  9991
2 69314  97.2852 196.7543 0001511  94.2842 248.1212 15.54011096  4477
STARLINK-37627          
1 69315U 26119V   26170.83335647 -.02297769  00000+0 -43006-1 0  9995
2 69315  97.2850 196.7615 0001419  72.3487 285.3605 15.52329936  4477
STARLINK-37738          
1 69316U 26119W   26170.83335647 -.02539298  00000+0 -40602-1 0  9991
2 69316  97.2849 196.7513 0001536  95.5811 244.1933 15.57004439  4471
STARLINK-37799          
1 69317U 26119X   26170.83335647 -.02568081  00000+0 -31096-1 0  9991
2 69317  97.2851 196.8261 0001964  84.3931  76.6683 15.64238600  4422
STARLINK-37802          
1 69318U 26119Y   26170.83335647 -.02473914  00000+0 -36277-1 0  9998
2 69318  97.2851 196.8059 0001453  63.9218  39.9300 15.59185096  4479
STARLINK-37803          
1 69319U 26119Z   26170.83335647 -.02477708  00000+0 -47777-1 0  9991
2 69319  97.2853 196.6864 0001953  78.3813 105.5720 15.51177742  4422
GUOWANG TEST OBJECT A   
1 69320U 26120A   26158.46264223  .00009002  00000+0  24096-3 0  9996
2 69320  54.9967  71.5399 0009599 294.3963  65.6063 15.38803685  1198
GUOWANG TEST OBJECT B   
1 69321U 26120B   26170.73702869  .00010751  00000+0  28601-3 0  9993
2 69321  54.9984  16.2566 0010420 337.3538  22.7029 15.38766949  3088
GUOWANG TEST OBJECT C   
1 69322U 26120C   26158.91389784  .00016153  00000+0  41736-3 0  9993
2 69322  54.9968  69.4792 0009850 309.3319  50.6835 15.39284097  1266
GUOWANG TEST OBJECT D   
1 69323U 26120D   26170.40795510  .00001304  00000+0  43871-4 0  9995
2 69323  54.9975  17.6918 0011582 350.5140   9.5667 15.38590797  3034
QIANFAN-163             
1 69325U 26121A   26170.80130773  .00000033  00000+0  27851-4 0  9994
2 69325  89.0159 300.2517 0020353 181.2404 178.8705 13.59758596  2512
QIANFAN-164             
1 69326U 26121B   26162.41240743  .00000112  00000+0  13228-3 0  9992
2 69326  89.0157 301.0998 0019383 205.3125 154.7084 13.60355109  1373
SZ-22 MODULE            
1 69328U 25272C   26170.09607251  .00016860  00000+0  20400-3 0  9991
2 69328  41.4805 310.5033 0006271 103.8964 256.2573 15.60279994  3627
STARLINK-37733          
1 69329U 26122A   26169.17634721 -.00420355  00000+0 -23398-2 0  9994
2 69329  97.2827 198.6747 0001407 137.8378 222.2998 15.80450219  2312
STARLINK-37772          
1 69330U 26122B   26170.83335647 -.01503009  00000+0 -12194-1 0  9996
2 69330  97.2853 200.4284 0001694  59.3095   5.9081 15.73732808  3727
STARLINK-37768          
1 69331U 26122C   26170.83335647 -.02462943  00000+0 -33426-1 0  9990
2 69331  97.2847 200.3920 0001536 113.3858 218.8490 15.61178952  3720
